NORAD_CAT_ID,OBJECT_NAME,OBJECT_TYPE,EPOCH,MEAN_MOTION,ECCENTRICITY,INCLINATION,RA_OF_ASC_NODE,ARG_OF_PERICENTER,MEAN_ANOMALY,BSTAR,MEAN_MOTION_DOT,MEAN_MOTION_DDOT,TLE_LINE0,TLE_LINE1,TLE_LINE2,SEMIMAJOR_AXIS,PERIOD,APOGEE,PERIGEE,DECAYED
51857.0,STARLINK-3571,PAYLOAD,2023-12-17 11:21:42,15.08835022,0.0001872,53.2186,69.8013,64.5567,295.5619,0.00012503,1.702e-05,0.0,0 STARLINK-3571,1 51857U 22022F   23351.47341104  .00001702  00000-0  12503-3 0  9996,2 51857  53.2186  69.8013 0001872  64.5567 295.5619 15.08835022100250,6917.896,95.438,541.056,538.466,0.0
51857.0,STARLINK-3571,PAYLOAD,2023-12-17 12:57:05,15.08836121,0.0001895,53.2189,69.5034,69.3804,290.7391,0.00014015,1.943e-05,0.0,0 STARLINK-3571,1 51857U 22022F   23351.53965004  .00001943  00000-0  14015-3 0  9991,2 51857  53.2189  69.5034 0001895  69.3804 290.7391 15.08836121100261,6917.892,95.438,541.068,538.446,0.0
51857.0,STARLINK-3571,PAYLOAD,2023-12-18 11:12:28,15.08854283,0.0002392,53.2195,65.3401,55.4469,304.6749,9.2383e-05,1.183e-05,0.0,0 STARLINK-3571,1 51857U 22022F   23352.46699868  .00001183  00000-0  92383-4 0  9997,2 51857  53.2195  65.3401 0002392  55.4469 304.6749 15.08854283100403,6917.837,95.437,541.356,538.047,0.0
51857.0,STARLINK-3571,PAYLOAD,2023-12-18 12:47:51,15.08829605,0.0002214,53.2196,65.0385,63.6528,296.4691,0.00048951,7.509e-05,0.0,0 STARLINK-3571,1 51857U 22022F   23352.53323995  .00007509  00000-0  48951-3 0  9999,2 51857  53.2196  65.0385 0002214  63.6528 296.4691 15.08829605100417,6917.912,95.438,541.309,538.246,0.0
51857.0,STARLINK-3571,PAYLOAD,2023-12-19 11:03:16,15.08842507,0.0001711,53.2185,60.8838,74.3744,285.7436,1.5389e-05,-4.3e-07,0.0,0 STARLINK-3571,1 51857U 22022F   23353.46060410 -.00000043  00000-0  15389-4 0  9999,2 51857  53.2185  60.8838 0001711  74.3744 285.7436 15.08842507100550,6917.873,95.437,540.921,538.554,0.0
51857.0,STARLINK-3571,PAYLOAD,2023-12-20 10:54:04,15.08837798,0.0001729,53.218,56.4188,74.5967,285.5216,-0.0001414,-2.538e-05,0.0,0 STARLINK-3571,1 51857U 22022F   23354.45421371 -.00002538  00000-0 -14140-3 0  9991,2 51857  53.2180  56.4188 0001729  74.5967 285.5216 15.08837798100709,6917.887,95.438,540.948,538.556,0.0
51857.0,STARLINK-3571,PAYLOAD,2023-12-21 10:44:50,15.08842842,0.000175,53.2187,51.9597,98.721,261.398,0.00022962,3.369e-05,0.0,0 STARLINK-3571,1 51857U 22022F   23355.44780161  .00003369  00000-0  22962-3 0  9998,2 51857  53.2187  51.9597 0001750  98.7210 261.3980 15.08842842100855,6917.872,95.437,540.947,538.526,0.0
51857.0,STARLINK-3571,PAYLOAD,2023-12-22 09:00:14,15.08839947,0.0001778,53.2185,47.7889,115.7659,244.3516,9.723e-05,1.26e-05,0.0,0 STARLINK-3571,1 51857U 22022F   23356.37516963  .00001260  00000-0  97230-4 0  9997,2 51857  53.2185  47.7889 0001778 115.7659 244.3516 15.08839947100990,6917.881,95.438,540.976,538.516,0.0
51857.0,STARLINK-3571,PAYLOAD,2023-12-23 08:51:02,15.08843796,0.000175,53.2187,43.3373,103.8794,256.2393,-2.3034e-05,-6.55e-06,0.0,0 STARLINK-3571,1 51857U 22022F   23357.36877358 -.00000655  00000-0 -23034-4 0  9995,2 51857  53.2187  43.3373 0001750 103.8794 256.2393 15.08843796101140,6917.869,95.437,540.944,538.523,0.0
51857.0,STARLINK-3571,PAYLOAD,2023-12-24 11:52:35,15.08826507,0.0001918,53.2191,38.2836,102.5022,257.6185,0.00051365,7.893e-05,0.0,0 STARLINK-3571,1 51857U 22022F   23358.49485441  .00007893  00000-0  51365-3 0  9994,2 51857  53.2191  38.2836 0001918 102.5022 257.6185 15.08826507101312,6917.922,95.438,541.113,538.46,0.0
51857.0,STARLINK-3571,PAYLOAD,2023-12-25 08:32:35,15.08842419,0.0001927,53.2172,34.4149,109.1821,250.938,9.0772e-05,1.157e-05,0.0,0 STARLINK-3571,1 51857U 22022F   23359.35597096  .00001157  00000-0  90772-4 0  9993,2 51857  53.2172  34.4149 0001927 109.1821 250.9380 15.08842419101443,6917.873,95.437,541.071,538.405,0.0
51857.0,STARLINK-3571,PAYLOAD,2023-12-25 22:51:04,15.08840135,0.0001812,53.217,31.7393,91.5454,268.5745,-8.5896e-05,-1.655e-05,0.0,0 STARLINK-3571,1 51857U 22022F   23359.95213505 -.00001655  00000-0 -85896-4 0  9995,2 51857  53.2170  31.7393 0001812  91.5454 268.5745 15.08840135101534,6917.88,95.438,540.998,538.491,0.0
51857.0,STARLINK-3571,PAYLOAD,2023-12-26 09:58:46,15.08840685,0.0001653,53.2175,29.6542,94.6207,265.4974,-5.914e-05,-1.229e-05,0.0,0 STARLINK-3571,1 51857U 22022F   23360.41582014 -.00001229  00000-0 -59140-4 0  9992,2 51857  53.2175  29.6542 0001653  94.6207 265.4974 15.08840685101602,6917.878,95.438,540.887,538.6,0.0
51857.0,STARLINK-3571,PAYLOAD,2023-12-27 11:24:56,15.08851647,0.0001689,53.2175,24.8935,112.9733,247.1437,5.1112e-05,5.26e-06,0.0,0 STARLINK-3571,1 51857U 22022F   23361.47564827  .00000526  00000-0  51112-4 0  9999,2 51857  53.2175  24.8935 0001689 112.9733 247.1437 15.08851647101760,6917.845,95.437,540.878,538.541,0.0
51857.0,STARLINK-3571,PAYLOAD,2023-12-28 01:43:25,15.08834258,0.0001689,53.2179,22.2232,81.3961,278.7222,0.00011622,1.562e-05,0.0,0 STARLINK-3571,1 51857U 22022F   23362.07182124  .00001562  00000-0  11622-3 0  9994,2 51857  53.2179  22.2232 0001689  81.3961 278.7222 15.08834258101859,6917.898,95.438,540.931,538.595,0.0
51857.0,STARLINK-3571,PAYLOAD,2023-12-28 11:15:43,15.08845573,0.0001741,53.2179,20.437,95.7284,264.3906,0.00012912,1.768e-05,0.0,0 STARLINK-3571,1 51857U 22022F   23362.46925403  .00001768  00000-0  12912-3 0  9993,2 51857  53.2179  20.4370 0001741  95.7284 264.3906 15.08845573101917,6917.863,95.437,540.933,538.524,0.0
51857.0,STARLINK-3571,PAYLOAD,2023-12-29 06:20:21,15.0883672,0.0001951,53.2178,16.8647,114.0808,246.0388,1.0966e-05,-1.14e-06,0.0,0 STARLINK-3571,1 51857U 22022F   23363.26414225 -.00000114  00000-0  10966-4 0  9990,2 51857  53.2178  16.8647 0001951 114.0808 246.0388 15.08836720102031,6917.89,95.438,541.105,538.406,0.0
51857.0,STARLINK-3571,PAYLOAD,2023-12-30 06:11:08,15.08839464,0.0001849,53.2177,12.4042,108.0731,252.0462,0.00015338,2.154e-05,0.0,0 STARLINK-3571,1 51857U 22022F   23364.25773823  .00002154  00000-0  15338-3 0  9994,2 51857  53.2177  12.4042 0001849 108.0731 252.0462 15.08839464102189,6917.882,95.438,541.026,538.468,0.0
51857.0,STARLINK-3571,PAYLOAD,2023-12-30 23:40:23,15.08834105,0.0001742,53.2181,9.1416,94.5762,265.5429,5.5036e-05,5.88e-06,0.0,0 STARLINK-3571,1 51857U 22022F   23364.98638689  .00000588  00000-0  55036-4 0  9993,2 51857  53.2181   9.1416 0001742  94.5762 265.5429 15.08834105102298,6917.898,95.438,540.969,538.558,0.0
51857.0,STARLINK-3571,PAYLOAD,2023-12-31 10:48:05,15.08837205,0.0001746,53.2178,7.055,97.314,262.8051,6.8581e-05,8.03e-06,0.0,0 STARLINK-3571,1 51857U 22022F   23365.45006562  .00000803  00000-0  68581-4 0  9994,2 51857  53.2178   7.0550 0001746  97.3140 262.8051 15.08837205102368,6917.889,95.438,540.962,538.546,0.0
51857.0,STARLINK-3571,PAYLOAD,2024-01-01 09:03:29,15.08843004,0.0001751,53.2176,2.8903,97.9074,262.2117,6.2236e-05,7.03e-06,0.0,0 STARLINK-3571,1 51857U 22022F   24001.37742338  .00000703  00000-0  62236-4 0  9991,2 51857  53.2176   2.8903 0001751  97.9074 262.2117 15.08843004102506,6917.871,95.437,540.948,538.525,0.0
51857.0,STARLINK-3571,PAYLOAD,2024-01-02 04:08:07,15.08838405,0.0001761,53.2179,359.3227,110.3418,249.7764,6.5713e-05,7.58e-06,0.0,0 STARLINK-3571,1 51857U 22022F   24002.17230683  .00000758  00000-0  65713-4 0  9998,2 51857  53.2179 359.3227 0001761 110.3418 249.7764 15.08838405102621,6917.885,95.438,540.969,538.532,0.0
51857.0,STARLINK-3571,PAYLOAD,2024-01-02 08:54:16,15.0884265,0.0001739,53.218,358.4302,103.7383,256.3803,0.00010015,1.306e-05,0.0,0 STARLINK-3571,1 51857U 22022F   24002.37102403  .00001306  00000-0  10015-3 0  9992,2 51857  53.2180 358.4302 0001739 103.7383 256.3803 15.08842650102657,6917.872,95.437,540.94,538.534,0.0
51857.0,STARLINK-3571,PAYLOAD,2024-01-03 08:45:03,15.08846272,0.0001734,53.2179,353.9702,107.7082,252.4099,7.2469e-05,8.66e-06,0.0,0 STARLINK-3571,1 51857U 22022F   24003.36462274  .00000866  00000-0  72469-4 0  9999,2 51857  53.2179 353.9702 0001734 107.7082 252.4099 15.08846272102809,6917.861,95.437,540.926,538.527,0.0
51857.0,STARLINK-3571,PAYLOAD,2024-01-04 03:49:41,15.08842839,0.0001766,53.2177,350.4002,107.3821,252.7365,5.0396e-05,5.14e-06,0.0,0 STARLINK-3571,1 51857U 22022F   24004.15950580  .00000514  00000-0  50396-4 0  9994,2 51857  53.2177 350.4002 0001766 107.3821 252.7365 15.08842839102921,6917.872,95.437,540.958,538.515,0.0
51857.0,STARLINK-3571,PAYLOAD,2024-01-04 05:25:04,15.08843529,0.0001785,53.2185,350.1012,104.505,255.6141,5.2381e-05,5.46e-06,0.0,0 STARLINK-3571,1 51857U 22022F   24004.22574375  .00000546  00000-0  52381-4 0  9997,2 51857  53.2185 350.1012 0001785 104.5050 255.6141 15.08843529102934,6917.87,95.437,540.969,538.5,0.0
51857.0,STARLINK-3571,PAYLOAD,2024-01-05 05:15:51,15.08846995,0.0001731,53.2183,345.6462,91.6043,268.5147,8.4146e-05,1.052e-05,0.0,0 STARLINK-3571,1 51857U 22022F   24005.21934265  .00001052  00000-0  84146-4 0  9992,2 51857  53.2183 345.6462 0001731  91.6043 268.5147 15.08846995103085,6917.859,95.437,540.921,538.527,0.0
51857.0,STARLINK-3571,PAYLOAD,2024-01-05 08:26:37,15.0884915,0.0001721,53.2184,345.0501,100.0869,260.0317,0.00010643,1.407e-05,0.0,0 STARLINK-3571,1 51857U 22022F   24005.35181959  .00001407  00000-0  10643-3 0  9995,2 51857  53.2184 345.0501 0001721 100.0869 260.0317 15.08849150103109,6917.852,95.437,540.908,538.527,0.0
51857.0,STARLINK-3571,PAYLOAD,2024-01-06 03:31:15,15.08838952,0.0001751,53.2181,341.4773,102.0567,258.0622,1.6343e-05,-2.8e-07,0.0,0 STARLINK-3571,1 51857U 22022F   24006.14670806 -.00000028  00000-0  16343-4 0  9990,2 51857  53.2181 341.4773 0001751 102.0567 258.0622 15.08838952103224,6917.884,95.438,540.96,538.537,0.0
51857.0,STARLINK-3571,PAYLOAD,2024-01-06 05:06:38,15.08840127,0.0001754,53.2182,341.1828,94.7923,265.3269,2.506e-05,1.11e-06,0.0,0 STARLINK-3571,1 51857U 22022F   24006.21294811  .00000111  00000-0  25060-4 0  9994,2 51857  53.2182 341.1828 0001754  94.7923 265.3269 15.08840127103235,6917.88,95.438,540.958,538.532,0.0
